{"type": "FeatureCollection", "features": [ {"type": "Feature", "properties": {"norad_id": 33745, "name": "FENGYUN 1C DEB", "group": "fengyun-1c-debris", "lat": 39.873485412097665, "lon": -140.2560133044657, "alt_km": 823.5629123455701, "timestamp": "2025-12-20T14:38:02.256668+00:00", "meta": {"OBJECT_NAME": "FENGYUN 1C DEB", "OBJECT_ID": "1999-025DJJ", "EPOCH": "2025-12-17T13:22:43.604832", "MEAN_MOTION": 14.22346964, "ECCENTRICITY": 0.00542183, "INCLINATION": 99.1148, "RA_OF_ASC_NODE": 28.8825, "ARG_OF_PERICENTER": 252.2828, "MEAN_ANOMALY": 107.2426, "EPHEMERIS_TYPE": 0, "CLASSIFICATION_TYPE": "U", "NORAD_CAT_ID": 33745, "ELEMENT_SET_NO": 999, "REV_AT_EPOCH": 66070, "BSTAR": 0.0010724416, "MEAN_MOTION_DOT": 2.374e-05, "MEAN_MOTION_DDOT": 0}, "tle": {"line1": "1 33745U 99025DJJ 25351.55744913  .00002374  00000+0  10724-2 0  9992", "line2": "2 33745  99.1148  28.8825 0054218 252.2828 107.2426 14.22346964660700"}}, "geometry": {"type": "Point", "coordinates": [-140.2560133044657, 39.873485412097665]}}, {"type": "Feature", "properties": {"norad_id": 33747, "name": "FENGYUN 1C DEB", "group": "fengyun-1c-debris", "lat": -77.55373448900832, "lon": 136.016945629891, "alt_km": 832.3893289503612, "timestamp": "2025-12-20T14:38:02.256678+00:00", "meta": {"OBJECT_NAME": "FENGYUN 1C DEB", "OBJECT_ID": "1999-025DJL", "EPOCH": "2025-12-20T01:28:07.665312", "MEAN_MOTION": 14.17505011, "ECCENTRICITY": 0.00910261, "INCLINATION": 99.0962, "RA_OF_ASC_NODE": 88.9142, "ARG_OF_PERICENTER": 197.1954, "MEAN_ANOMALY": 162.6131, "EPHEMERIS_TYPE": 0, "CLASSIFICATION_TYPE": "U", "NORAD_CAT_ID": 33747, "ELEMENT_SET_NO": 999, "REV_AT_EPOCH": 90236, "BSTAR": 0.001836775, "MEAN_MOTION_DOT": 3.837e-05, "MEAN_MOTION_DDOT": 0}, "tle": {"line1": "1 33747U 99025DJL 25354.06119983  .00003837  00000+0  18368-2 0  9993", "line2": "2 33747  99.0962  88.9142 0091026 197.1954 162.6131 14.17505011902362"}}, "geometry": {"type": "Point", "coordinates": [136.016945629891, -77.55373448900832]}}, {"type": "Feature", "properties": {"norad_id": 33748, "name": "FENGYUN 1C DEB", "group": "fengyun-1c-debris", "lat": -4.416700848483906, "lon": 46.35400435070979, "alt_km": 805.9350898197345, "timestamp": "2025-12-20T14:38:02.256688+00:00", "meta": {"OBJECT_NAME": "FENGYUN 1C DEB", "OBJECT_ID": "1999-025DJM", "EPOCH": "2025-12-18T09:00:17.907264", "MEAN_MOTION": 14.32320474, "ECCENTRICITY": 0.0034784, "INCLINATION": 98.5864, "RA_OF_ASC_NODE": 43.4732, "ARG_OF_PERICENTER": 224.1602, "MEAN_ANOMALY": 135.6804, "EPHEMERIS_TYPE": 0, "CLASSIFICATION_TYPE": "U", "NORAD_CAT_ID": 33748, "ELEMENT_SET_NO": 999, "REV_AT_EPOCH": 91474, "BSTAR": 0.001055977, "MEAN_MOTION_DOT": 2.827e-05, "MEAN_MOTION_DDOT": 0}, "tle": {"line1": "1 33748U 99025DJM 25352.37520726  .00002827  00000+0  10560-2 0  9991", "line2": "2 33748  98.5864  43.4732 0034784 224.1602 135.6804 14.32320474914745"}}, "geometry": {"type": "Point", "coordinates": [46.35400435070979, -4.416700848483906]}}, {"type": "Feature", "properties": {"norad_id": 35088, "name": "FENGYUN 1C DEB", "group": "fengyun-1c-debris", "lat": -38.955391627868124, "lon": -17.362164357366602, "alt_km": 709.4095354876772, "timestamp": "2025-12-20T14:38:02.256698+00:00", "meta": {"OBJECT_NAME": "FENGYUN 1C DEB", "OBJECT_ID": "1999-025DJQ", "EPOCH": "2025-12-20T05:06:23.479200", "MEAN_MOTION": 14.12177263, "ECCENTRICITY": 0.02664033, "INCLINATION": 94.6215, "RA_OF_ASC_NODE": 166.182, "ARG_OF_PERICENTER": 179.9312, "MEAN_ANOMALY": 180.1954, "EPHEMERIS_TYPE": 0, "CLASSIFICATION_TYPE": "U", "NORAD_CAT_ID": 35088, "ELEMENT_SET_NO": 999, "REV_AT_EPOCH": 58905, "BSTAR": 0.0046454048, "MEAN_MOTION_DOT": 0.00011935, "MEAN_MOTION_DDOT": 0}, "tle": {"line1": "1 35088U 99025DJQ 25354.21277175  .00011935  00000+0  46454-2 0  9993", "line2": "2 35088  94.6215 166.1820 0266403 179.9312 180.1954 14.12177263589059"}}, "geometry": {"type": "Point", "coordinates": [-17.362164357366602, -38.955391627868124]}}, {"type": "Feature", "properties": {"norad_id": 35089, "name": "FENGYUN 1C DEB", "group": "fengyun-1c-debris", "lat": -25.849269827258173, "lon": 8.367632079851361, "alt_km": 825.1936781967497, "timestamp": "2025-12-20T14:38:02.256708+00:00", "meta": {"OBJECT_NAME": "FENGYUN 1C DEB", "OBJECT_ID": "1999-025DJR", "EPOCH": "2025-12-19T23:31:50.352096", "MEAN_MOTION": 14.19435221, "ECCENTRICITY": 0.0028719, "INCLINATION": 98.559, "RA_OF_ASC_NODE": 3.5754, "ARG_OF_PERICENTER": 44.1764, "MEAN_ANOMALY": 316.1699, "EPHEMERIS_TYPE": 0, "CLASSIFICATION_TYPE": "U", "NORAD_CAT_ID": 35089, "ELEMENT_SET_NO": 999, "REV_AT_EPOCH": 60978, "BSTAR": 0.00043746, "MEAN_MOTION_DOT": 8.82e-06, "MEAN_MOTION_DDOT": 0}, "tle": {"line1": "1 35089U 99025DJR 25353.98044389  .00000882  00000+0  43746-3 0  9997", "line2": "2 35089  98.5590   3.5754 0028719  44.1764 316.1699 14.19435221609787"}}, "geometry": {"type": "Point", "coordinates": [8.367632079851361, -25.849269827258173]}}, {"type": "Feature", "properties": {"norad_id": 35090, "name": "FENGYUN 1C DEB", "group": "fengyun-1c-debris", "lat": -62.46745734962558, "lon": 169.46917084517474, "alt_km": 852.9869095449285, "timestamp": "2025-12-20T14:38:02.256718+00:00", "meta": {"OBJECT_NAME": "FENGYUN 1C DEB", "OBJECT_ID": "1999-025DJS", "EPOCH": "2025-12-15T11:31:21.871200", "MEAN_MOTION": 14.17610468, "ECCENTRICITY": 0.00548506, "INCLINATION": 99.1994, "RA_OF_ASC_NODE": 2.2725, "ARG_OF_PERICENTER": 7.0781, "MEAN_ANOMALY": 353.1155, "EPHEMERIS_TYPE": 0, "CLASSIFICATION_TYPE": "U", "NORAD_CAT_ID": 35090, "ELEMENT_SET_NO": 999, "REV_AT_EPOCH": 66289, "BSTAR": 0.0011364277, "MEAN_MOTION_DOT": 2.298e-05, "MEAN_MOTION_DDOT": 0}, "tle": {"line1": "1 35090U 99025DJS 25349.48011425  .00002298  00000+0  11364-2 0  9997", "line2": "2 35090  99.1994   2.2725 0054850   7.0781 353.1155 14.17610468662895"}}, "geometry": {"type": "Point", "coordinates": [169.46917084517474, -62.46745734962558]}}, {"type": "Feature", "properties": {"norad_id": 35091, "name": "FENGYUN 1C DEB", "group": "fengyun-1c-debris", "lat": 23.75016966921473, "lon": 95.39753856451617, "alt_km": 702.4782413878947, "timestamp": "2025-12-20T14:38:02.256728+00:00", "meta": {"OBJECT_NAME": "FENGYUN 1C DEB", "OBJECT_ID": "1999-025DJT", "EPOCH": "2025-12-19T05:40:00.748992", "MEAN_MOTION": 14.61713207, "ECCENTRICITY": 0.0049136, "INCLINATION": 98.5976, "RA_OF_ASC_NODE": 97.7869, "ARG_OF_PERICENTER": 271.6969, "MEAN_ANOMALY": 87.8603, "EPHEMERIS_TYPE": 0, "CLASSIFICATION_TYPE": "U", "NORAD_CAT_ID": 35091, "ELEMENT_SET_NO": 999, "REV_AT_EPOCH": 90022, "BSTAR": 0.0018836, "MEAN_MOTION_DOT": 9.504e-05, "MEAN_MOTION_DDOT": 0}, "tle": {"line1": "1 35091U 99025DJT 25353.23611978  .00009504  00000+0  18836-2 0  9993", "line2": "2 35091  98.5976  97.7869 0049136 271.6969  87.8603 14.61713207900220"}}, "geometry": {"type": "Point", "coordinates": [95.39753856451617, 23.75016966921473]}}, {"type": "Feature", "properties": {"norad_id": 35102, "name": "FENGYUN 1C DEB", "group": "fengyun-1c-debris", "lat": -30.713189354345253, "lon": 9.752546590083831, "alt_km": 808.3892145327454, "timestamp": "2025-12-20T14:38:02.256738+00:00", "meta": {"OBJECT_NAME": "FENGYUN 1C DEB", "OBJECT_ID": "1999-025DKE", "EPOCH": "2025-12-13T06:19:02.409312", "MEAN_MOTION": 14.28874039, "ECCENTRICITY": 0.00607637, "INCLINATION": 98.4802, "RA_OF_ASC_NODE": 357.5239, "ARG_OF_PERICENTER": 90.2418, "MEAN_ANOMALY": 270.5727, "EPHEMERIS_TYPE": 0, "CLASSIFICATION_TYPE": "U", "NORAD_CAT_ID": 35102, "ELEMENT_SET_NO": 999, "REV_AT_EPOCH": 64920, "BSTAR": 0.00073405609, "MEAN_MOTION_DOT": 1.848e-05, "MEAN_MOTION_DDOT": 0}, "tle": {"line1": "1 35102U 99025DKE 25347.26322233  .00001848  00000+0  73406-3 0  9993", "line2": "2 35102  98.4802 357.5239 0060763  90.2418 270.5727 14.28874039649201"}}, "geometry": {"type": "Point", "coordinates": [9.752546590083831, -30.713189354345253]}}, {"type": "Feature", "properties": {"norad_id": 35104, "name": "FENGYUN 1C DEB", "group": "fengyun-1c-debris", "lat": -70.08895000721635, "lon": 156.40938349547218, "alt_km": 846.9423112611921, "timestamp": "2025-12-20T14:38:02.256748+00:00", "meta": {"OBJECT_NAME": "FENGYUN 1C DEB", "OBJECT_ID": "1999-025DKG", "EPOCH": "2025-12-19T07:05:48.046272", "MEAN_MOTION": 14.20339512, "ECCENTRICITY": 0.0031435, "INCLINATION": 98.5954, "RA_OF_ASC_NODE": 359.8138, "ARG_OF_PERICENTER": 122.4536, "MEAN_ANOMALY": 253.9667, "EPHEMERIS_TYPE": 0, "CLASSIFICATION_TYPE": "U", "NORAD_CAT_ID": 35104, "ELEMENT_SET_NO": 999, "REV_AT_EPOCH": 89860, "BSTAR": 0.00030745, "MEAN_MOTION_DOT": 6.19e-06, "MEAN_MOTION_DDOT": 0}, "tle": {"line1": "1 35104U 99025DKG 25353.29569498  .00000619  00000+0  30745-3 0  9995", "line2": "2 35104  98.5954 359.8138 0031435 122.4536 253.9667 14.20339512898600"}}, "geometry": {"type": "Point", "coordinates": [156.40938349547218, -70.08895000721635]}}, {"type": "Feature", "properties": {"norad_id": 35105, "name": "FENGYUN 1C DEB", "group": "fengyun-1c-debris", "lat": -78.35494233072454, "lon": 25.91119319379086, "alt_km": 779.3804917450134, "timestamp": "2025-12-20T14:38:02.256757+00:00", "meta": {"OBJECT_NAME": "FENGYUN 1C DEB", "OBJECT_ID": "1999-025DKH", "EPOCH": "2025-12-20T05:02:40.480800", "MEAN_MOTION": 14.45398684, "ECCENTRICITY": 0.0112505, "INCLINATION": 98.9441, "RA_OF_ASC_NODE": 335.6575, "ARG_OF_PERICENTER": 32.3245, "MEAN_ANOMALY": 328.4774, "EPHEMERIS_TYPE": 0, "CLASSIFICATION_TYPE": "U", "NORAD_CAT_ID": 35105, "ELEMENT_SET_NO": 999, "REV_AT_EPOCH": 94601, "BSTAR": 0.00026476968, "MEAN_MOTION_DOT": 9.53e-06, "MEAN_MOTION_DDOT": 0}, "tle": {"line1": "1 35105U 99025DKH 25354.21019075  .00000953  00000+0  26477-3 0  9998", "line2": "2 35105  98.9441 335.6575 0112505  32.3245 328.4774 14.45398684946015"}}, "geometry": {"type": "Point", "coordinates": [25.91119319379086, -78.35494233072454]}}]}